{
  "links" : {
    "next" : "https://api.nasa.gov/neo/rest/v1/neo/browse?page=23&size=20&api_key=jqAGvNAwUIBu4fl9FSOjdm3V4F7hIglRzI6pdX9d",
    "prev" : "https://api.nasa.gov/neo/rest/v1/neo/browse?page=21&size=20&api_key=jqAGvNAwUIBu4fl9FSOjdm3V4F7hIglRzI6pdX9d",
    "self" : "https://api.nasa.gov/neo/rest/v1/neo/browse?page=22&size=20&api_key=jqAGvNAwUIBu4fl9FSOjdm3V4F7hIglRzI6pdX9d"
  },
  "page" : {
    "size" : 20,
    "total_elements" : 20750,
    "total_pages" : 1038,
    "number" : 22
  },
  "near_earth_objects" : [ {
    "links" : {
      "self" : "https://api.nasa.gov/neo/rest/v1/neo/3291349?api_key=jqAGvNAwUIBu4fl9FSOjdm3V4F7hIglRzI6pdX9d"
    },
    "neo_reference_id" : "3291349",
    "name" : "(2005 SG26)",
    "designation" : "2005 SG26",
    "nasa_jpl_url" : "http://ssd.jpl.nasa.gov/sbdb.cgi?sstr=3291349",
    "absolute_magnitude_h" : 25.9,
    "estimated_diameter" : {
      "kilometers" : {
        "estimated_diameter_min" : 0.0175612318,
        "estimated_diameter_max" : 0.0392681082
      },
      "meters" : {
        "estimated_diameter_min" : 17.561231848,
        "estimated_diameter_max" : 39.2681081809
      },
      "miles" : {
        "estimated_diameter_min" : 0.0109120402,
        "estimated_diameter_max" : 0.0244000636
      },
      "feet" : {
        "estimated_diameter_min" : 57.6155918963,
        "estimated_diameter_max" : 128.8323800441
      }
    },
    "is_potentially_hazardous_asteroid" : false,
    "close_approach_data" : [ {
      "close_approach_date" : "2005-10-05",
      "epoch_date_close_approach" : 1128495600000,
      "relative_velocity" : {
        "kilometers_per_second" : "8.9029534022",
        "kilometers_per_hour" : "32050.6322480708",
        "miles_per_hour" : "19915.0164654749"
      },
      "miss_distance" : {
        "astronomical" : "0.0348876349",
        "lunar" : "13.5712900162",
        "kilometers" : "5219116",
        "miles" : "3243008.25"
      },
      "orbiting_body" : "Earth"
    } ],
    "orbital_data" : {
      "orbit_id" : "9",
      "orbit_determination_date" : "2017-04-06 09:10:24",
      "first_observation_date" : "2005-09-29",
      "last_observation_date" : "2005-10-07",
      "data_arc_in_days" : 8,
      "observations_used" : 22,
      "orbit_uncertainty" : "8",
      "minimum_orbit_intersection" : ".0312569",
      "jupiter_tisserand_invariant" : "3.202",
      "epoch_osculation" : "2453645.5",
      "eccentricity" : ".5942565839813374",
      "semi_major_axis" : "2.481265110272488",
      "inclination" : "5.92183605293121",
      "ascending_node_longitude" : "184.9744616734386",
      "orbital_period" : "1427.605393840457",
      "perihelion_distance" : "1.006756981889883",
      "perihelion_argument" : "207.8085793464203",
      "aphelion_distance" : "3.955773238655093",
      "perihelion_time" : "2453665.331384251464",
      "mean_anomaly" : "354.9991094448577",
      "mean_motion" : ".252170523838909",
      "equinox" : "J2000",
      "orbit_class" : {
        "orbit_class_type" : "APO",
        "orbit_class_range" : "a (semi-major axis) > 1.0 AU; q (perihelion) < 1.017 AU",
        "orbit_class_description" : "Near-Earth asteroid orbits which cross the Earth’s orbit similar to that of 1862 Apollo"
      }
    },
    "is_sentry_object" : false
  }, {
    "links" : {
      "self" : "https://api.nasa.gov/neo/rest/v1/neo/3291351?api_key=jqAGvNAwUIBu4fl9FSOjdm3V4F7hIglRzI6pdX9d"
    },
    "neo_reference_id" : "3291351",
    "name" : "(2005 SJ26)",
    "designation" : "2005 SJ26",
    "nasa_jpl_url" : "http://ssd.jpl.nasa.gov/sbdb.cgi?sstr=3291351",
    "absolute_magnitude_h" : 23.9,
    "estimated_diameter" : {
      "kilometers" : {
        "estimated_diameter_min" : 0.04411182,
        "estimated_diameter_max" : 0.0986370281
      },
      "meters" : {
        "estimated_diameter_min" : 44.1118199997,
        "estimated_diameter_max" : 98.6370281305
      },
      "miles" : {
        "estimated_diameter_min" : 0.0274098057,
        "estimated_diameter_max" : 0.0612901888
      },
      "feet" : {
        "estimated_diameter_min" : 144.7238235278,
        "estimated_diameter_max" : 323.6123073718
      }
    },
    "is_potentially_hazardous_asteroid" : false,
    "close_approach_data" : [ {
      "close_approach_date" : "2001-12-04",
      "epoch_date_close_approach" : 1007452800000,
      "relative_velocity" : {
        "kilometers_per_second" : "20.5794059511",
        "kilometers_per_hour" : "74085.8614240496",
        "miles_per_hour" : "46034.0731720713"
      },
      "miss_distance" : {
        "astronomical" : "0.4584857732",
        "lunar" : "178.3509674072",
        "kilometers" : "68588496",
        "miles" : "42618916"
      },
      "orbiting_body" : "Earth"
    }, {
      "close_approach_date" : "2005-10-06",
      "epoch_date_close_approach" : 1128582000000,
      "relative_velocity" : {
        "kilometers_per_second" : "7.4268478226",
        "kilometers_per_hour" : "26736.6521615122",
        "miles_per_hour" : "16613.1158944685"
      },
      "miss_distance" : {
        "astronomical" : "0.050776097",
        "lunar" : "19.7519016266",
        "kilometers" : "7595996",
        "miles" : "4719933"
      },
      "orbiting_body" : "Earth"
    } ],
    "orbital_data" : {
      "orbit_id" : "11",
      "orbit_determination_date" : "2017-04-06 09:10:24",
      "first_observation_date" : "2005-09-29",
      "last_observation_date" : "2005-10-20",
      "data_arc_in_days" : 21,
      "observations_used" : 48,
      "orbit_uncertainty" : "7",
      "minimum_orbit_intersection" : ".0407246",
      "jupiter_tisserand_invariant" : "3.217",
      "epoch_osculation" : "2458600.5",
      "eccentricity" : ".5832998477130092",
      "semi_major_axis" : "2.481013363045288",
      "inclination" : "3.554446022439404",
      "ascending_node_longitude" : "39.01293235860263",
      "orbital_period" : "1427.388133752977",
      "perihelion_distance" : "1.033838646207031",
      "perihelion_argument" : "343.6996101726469",
      "aphelion_distance" : "3.928188079883546",
      "perihelion_time" : "2457942.075804450279",
      "mean_anomaly" : "166.06044620441",
      "mean_motion" : ".2522089062443483",
      "equinox" : "J2000",
      "orbit_class" : {
        "orbit_class_type" : "AMO",
        "orbit_class_range" : "1.017 AU < q (perihelion) < 1.3 AU",
        "orbit_class_description" : "Near-Earth asteroid orbits similar to that of 1221 Amor"
      }
    },
    "is_sentry_object" : false
  }, {
    "links" : {
      "self" : "https://api.nasa.gov/neo/rest/v1/neo/3292013?api_key=jqAGvNAwUIBu4fl9FSOjdm3V4F7hIglRzI6pdX9d"
    },
    "neo_reference_id" : "3292013",
    "name" : "(2005 SY70)",
    "designation" : "2005 SY70",
    "nasa_jpl_url" : "http://ssd.jpl.nasa.gov/sbdb.cgi?sstr=3292013",
    "absolute_magnitude_h" : 26.8,
    "estimated_diameter" : {
      "kilometers" : {
        "estimated_diameter_min" : 0.0116025908,
        "estimated_diameter_max" : 0.0259441818
      },
      "meters" : {
        "estimated_diameter_min" : 11.6025908209,
        "estimated_diameter_max" : 25.9441817907
      },
      "miles" : {
        "estimated_diameter_min" : 0.0072095135,
        "estimated_diameter_max" : 0.0161209622
      },
      "feet" : {
        "estimated_diameter_min" : 38.066244069,
        "estimated_diameter_max" : 85.1187093863
      }
    },
    "is_potentially_hazardous_asteroid" : false,
    "close_approach_data" : [ {
      "close_approach_date" : "2005-10-04",
      "epoch_date_close_approach" : 1128409200000,
      "relative_velocity" : {
        "kilometers_per_second" : "6.3742878932",
        "kilometers_per_hour" : "22947.4364156937",
        "miles_per_hour" : "14258.644588407"
      },
      "miss_distance" : {
        "astronomical" : "0.0518565525",
        "lunar" : "20.1721992493",
        "kilometers" : "7757629.5",
        "miles" : "4820367.5"
      },
      "orbiting_body" : "Earth"
    } ],
    "orbital_data" : {
      "orbit_id" : "7",
      "orbit_determination_date" : "2017-04-06 09:10:23",
      "first_observation_date" : "2005-09-30",
      "last_observation_date" : "2005-10-07",
      "data_arc_in_days" : 7,
      "observations_used" : 18,
      "orbit_uncertainty" : "8",
      "minimum_orbit_intersection" : ".0504765",
      "jupiter_tisserand_invariant" : "3.394",
      "epoch_osculation" : "2453646.5",
      "eccentricity" : ".5403162669203567",
      "semi_major_axis" : "2.282395933287916",
      "inclination" : "1.43961450466881",
      "ascending_node_longitude" : "19.09670901239498",
      "orbital_period" : "1259.461522820116",
      "perihelion_distance" : "1.049180282979586",
      "perihelion_argument" : "358.5876248196117",
      "aphelion_distance" : "3.515611583596247",
      "perihelion_time" : "2453653.173928752759",
      "mean_anomaly" : "358.092347953899",
      "mean_motion" : ".2858364415880749",
      "equinox" : "J2000",
      "orbit_class" : {
        "orbit_class_type" : "AMO",
        "orbit_class_range" : "1.017 AU < q (perihelion) < 1.3 AU",
        "orbit_class_description" : "Near-Earth asteroid orbits similar to that of 1221 Amor"
      }
    },
    "is_sentry_object" : false
  } ]
}